[{"OBJECT_NAME":"STARLINK-2153","OBJECT_ID":"2021-024AJ","EPOCH":"2026-03-09T22:23:49.519392","MEAN_MOTION":15.30179306,"ECCENTRICITY":0.0001512,"INCLINATION":53.1593,"RA_OF_ASC_NODE":308.2664,"ARG_OF_PERICENTER":112.0172,"MEAN_ANOMALY":248.0989,"EPHEMERIS_TYPE":0,"CLASSIFICATION_TYPE":"U","NORAD_CAT_ID":48009,"ELEMENT_SET_NO":999,"REV_AT_EPOCH":27493,"BSTAR":3.4639663e-5,"MEAN_MOTION_DOT":6.66e-6,"MEAN_MOTION_DDOT":0},{"OBJECT_NAME":"TRANSPORTER-10 OBJECT AG","OBJECT_ID":"2024-043AG","EPOCH":"2026-03-09T22:12:45.387648","MEAN_MOTION":15.30759727,"ECCENTRICITY":0.00093005,"INCLINATION":97.5471,"RA_OF_ASC_NODE":205.7101,"ARG_OF_PERICENTER":226.5958,"MEAN_ANOMALY":133.4509,"EPHEMERIS_TYPE":0,"CLASSIFICATION_TYPE":"U","NORAD_CAT_ID":59128,"ELEMENT_SET_NO":999,"REV_AT_EPOCH":11192,"BSTAR":0.00032170115,"MEAN_MOTION_DOT":9.498e-5,"MEAN_MOTION_DDOT":0}]
